{
  "type": "FeatureCollection",
  "features": [
    {
      "type": "Feature",
      "properties": {
        "norad_id": 35915,
        "name": "IRIDIUM 33 DEB",
        "group": "iridium-33-debris",
        "lat": -0.16173106287476946,
        "lon": -15.45291890322972,
        "alt_km": 637.2009738928882,
        "timestamp": "2025-12-09T05:43:21.111363+00:00",
        "meta_object_name": "IRIDIUM 33 DEB",
        "meta_object_id": "1997-051TY",
        "meta_epoch": "2025-12-07T18:02:16.498176",
        "meta_mean_motion": 14.80542095,
        "meta_eccentricity": 0.00101746,
        "meta_inclination": 86.3429,
        "meta_ra_of_asc_node": 345.2367,
        "meta_arg_of_pericenter": 205.9072,
        "meta_mean_anomaly": 154.1641,
        "meta_ephemeris_type": 0,
        "meta_classification_type": "U",
        "meta_norad_cat_id": 35915,
        "meta_element_set_no": 999,
        "meta_rev_at_epoch": 8012,
        "meta_bstar": 0.0030076362,
        "meta_mean_motion_dot": 0.00023136,
        "meta_mean_motion_ddot": 0,
        "tle_line1": "1 35915U 97051TY  25341.75157984  .00023136  00000+0  30076-2 0  9998",
        "tle_line2": "2 35915  86.3429 345.2367 0010174 205.9072 154.1641 14.80542095 80126"
      },
      "geometry": {
        "type": "Point",
        "coordinates": [
          -15.45291890322972,
          -0.16173106287476946
        ]
      }
    },
    {
      "type": "Feature",
      "properties": {
        "norad_id": 35918,
        "name": "IRIDIUM 33 DEB",
        "group": "iridium-33-debris",
        "lat": 14.639771958671002,
        "lon": -103.62502416839274,
        "alt_km": 704.1367534672627,
        "timestamp": "2025-12-09T05:43:21.111374+00:00",
        "meta_object_name": "IRIDIUM 33 DEB",
        "meta_object_id": "1997-051UB",
        "meta_epoch": "2025-12-07T13:31:29.153568",
        "meta_mean_motion": 14.51171215,
        "meta_eccentricity": 0.00271834,
        "meta_inclination": 86.4003,
        "meta_ra_of_asc_node": 78.036,
        "meta_arg_of_pericenter": 186.5072,
        "meta_mean_anomaly": 234.2522,
        "meta_ephemeris_type": 0,
        "meta_classification_type": "U",
        "meta_norad_cat_id": 35918,
        "meta_element_set_no": 999,
        "meta_rev_at_epoch": 85132,
        "meta_bstar": 0.0020664418,
        "meta_mean_motion_dot": 8.262e-05,
        "meta_mean_motion_ddot": 0,
        "tle_line1": "1 35918U 97051UB  25341.56353187  .00008262  00000+0  20664-2 0  9998",
        "tle_line2": "2 35918  86.4003  78.0360 0027183 186.5072 234.2522 14.51171215851320"
      },
      "geometry": {
        "type": "Point",
        "coordinates": [
          -103.62502416839274,
          14.639771958671002
        ]
      }
    },
    {
      "type": "Feature",
      "properties": {
        "norad_id": 35929,
        "name": "IRIDIUM 33 DEB",
        "group": "iridium-33-debris",
        "lat": -7.999554800199819,
        "lon": -46.2268573433579,
        "alt_km": 556.4540901341616,
        "timestamp": "2025-12-09T05:43:21.111384+00:00",
        "meta_object_name": "IRIDIUM 33 DEB",
        "meta_object_id": "1997-051UN",
        "meta_epoch": "2025-12-02T05:49:26.403744",
        "meta_mean_motion": 15.01304383,
        "meta_eccentricity": 0.00192929,
        "meta_inclination": 86.3326,
        "meta_ra_of_asc_node": 317.6017,
        "meta_arg_of_pericenter": 66.6937,
        "meta_mean_anomaly": 293.6323,
        "meta_ephemeris_type": 0,
        "meta_classification_type": "U",
        "meta_norad_cat_id": 35929,
        "meta_element_set_no": 999,
        "meta_rev_at_epoch": 87622,
        "meta_bstar": 0.0031995692,
        "meta_mean_motion_dot": 0.00041528,
        "meta_mean_motion_ddot": 0,
        "tle_line1": "1 35929U 97051UN  25336.24266671  .00041528  00000+0  31996-2 0  9992",
        "tle_line2": "2 35929  86.3326 317.6017 0019292  66.6937 293.6323 15.01304383876224"
      },
      "geometry": {
        "type": "Point",
        "coordinates": [
          -46.2268573433579,
          -7.999554800199819
        ]
      }
    },
    {
      "type": "Feature",
      "properties": {
        "norad_id": 36011,
        "name": "IRIDIUM 33 DEB",
        "group": "iridium-33-debris",
        "lat": -19.871832304341236,
        "lon": 35.60410700885795,
        "alt_km": 763.9613004785879,
        "timestamp": "2025-12-09T05:43:21.111396+00:00",
        "meta_object_name": "IRIDIUM 33 DEB",
        "meta_object_id": "1997-051US",
        "meta_epoch": "2025-12-08T10:05:26.079072",
        "meta_mean_motion": 14.41310203,
        "meta_eccentricity": 0.00172479,
        "meta_inclination": 86.3414,
        "meta_ra_of_asc_node": 37.2804,
        "meta_arg_of_pericenter": 231.0749,
        "meta_mean_anomaly": 187.2759,
        "meta_ephemeris_type": 0,
        "meta_classification_type": "U",
        "meta_norad_cat_id": 36011,
        "meta_element_set_no": 999,
        "meta_rev_at_epoch": 64478,
        "meta_bstar": 0.00083412768,
        "meta_mean_motion_dot": 2.72e-05,
        "meta_mean_motion_ddot": 0,
        "tle_line1": "1 36011U 97051US  25342.42044073  .00002720  00000+0  83413-3 0  9995",
        "tle_line2": "2 36011  86.3414  37.2804 0017247 231.0749 187.2759 14.41310203644787"
      },
      "geometry": {
        "type": "Point",
        "coordinates": [
          35.60410700885795,
          -19.871832304341236
        ]
      }
    },
    {
      "type": "Feature",
      "properties": {
        "norad_id": 36012,
        "name": "IRIDIUM 33 DEB",
        "group": "iridium-33-debris",
        "lat": -4.557683106712316,
        "lon": 129.23073227633847,
        "alt_km": 829.85082212821,
        "timestamp": "2025-12-09T05:43:21.111406+00:00",
        "meta_object_name": "IRIDIUM 33 DEB",
        "meta_object_id": "1997-051UT",
        "meta_epoch": "2025-12-08T15:17:32.042688",
        "meta_mean_motion": 14.18803085,
        "meta_eccentricity": 0.021266,
        "meta_inclination": 86.445,
        "meta_ra_of_asc_node": 309.1888,
        "meta_arg_of_pericenter": 276.4407,
        "meta_mean_anomaly": 81.2606,
        "meta_ephemeris_type": 0,
        "meta_classification_type": "U",
        "meta_norad_cat_id": 36012,
        "meta_element_set_no": 999,
        "meta_rev_at_epoch": 65426,
        "meta_bstar": 0.010465,
        "meta_mean_motion_dot": 0.00027331,
        "meta_mean_motion_ddot": 0,
        "tle_line1": "1 36012U 97051UT  25342.63717642  .00027331  00000+0  10465-1 0  9998",
        "tle_line2": "2 36012  86.4450 309.1888 0212660 276.4407  81.2606 14.18803085654269"
      },
      "geometry": {
        "type": "Point",
        "coordinates": [
          129.23073227633847,
          -4.557683106712316
        ]
      }
    },
    {
      "type": "Feature",
      "properties": {
        "norad_id": 36028,
        "name": "IRIDIUM 33 DEB",
        "group": "iridium-33-debris",
        "lat": 29.53504194891703,
        "lon": -49.56720442541802,
        "alt_km": 568.2289686927188,
        "timestamp": "2025-12-09T05:43:21.111416+00:00",
        "meta_object_name": "IRIDIUM 33 DEB",
        "meta_object_id": "1997-051VK",
        "meta_epoch": "2025-12-08T15:07:59.293632",
        "meta_mean_motion": 14.94981488,
        "meta_eccentricity": 0.002202,
        "meta_inclination": 86.3217,
        "meta_ra_of_asc_node": 308.6297,
        "meta_arg_of_pericenter": 65.6052,
        "meta_mean_anomaly": 294.7472,
        "meta_ephemeris_type": 0,
        "meta_classification_type": "U",
        "meta_norad_cat_id": 36028,
        "meta_element_set_no": 999,
        "meta_rev_at_epoch": 87063,
        "meta_bstar": 0.0029712,
        "meta_mean_motion_dot": 0.00032753,
        "meta_mean_motion_ddot": 0,
        "tle_line1": "1 36028U 97051VK  25342.63054738  .00032753  00000+0  29712-2 0  9995",
        "tle_line2": "2 36028  86.3217 308.6297 0022020  65.6052 294.7472 14.94981488870638"
      },
      "geometry": {
        "type": "Point",
        "coordinates": [
          -49.56720442541802,
          29.53504194891703
        ]
      }
    },
    {
      "type": "Feature",
      "properties": {
        "norad_id": 36080,
        "name": "IRIDIUM 33 DEB",
        "group": "iridium-33-debris",
        "lat": 40.578477998369124,
        "lon": -173.6475408924721,
        "alt_km": 722.6853078943677,
        "timestamp": "2025-12-09T05:43:21.111427+00:00",
        "meta_object_name": "IRIDIUM 33 DEB",
        "meta_object_id": "1997-051VM",
        "meta_epoch": "2025-12-07T08:15:24.109920",
        "meta_mean_motion": 14.46571942,
        "meta_eccentricity": 0.00176312,
        "meta_inclination": 86.3198,
        "meta_ra_of_asc_node": 10.3374,
        "meta_arg_of_pericenter": 174.0737,
        "meta_mean_anomaly": 186.0678,
        "meta_ephemeris_type": 0,
        "meta_classification_type": "U",
        "meta_norad_cat_id": 36080,
        "meta_element_set_no": 999,
        "meta_rev_at_epoch": 47336,
        "meta_bstar": 0.0010977788,
        "meta_mean_motion_dot": 3.982e-05,
        "meta_mean_motion_ddot": 0,
        "tle_line1": "1 36080U 97051VM  25341.34402905  .00003982  00000+0  10978-2 0  9999",
        "tle_line2": "2 36080  86.3198  10.3374 0017631 174.0737 186.0678 14.46571942473361"
      },
      "geometry": {
        "type": "Point",
        "coordinates": [
          -173.6475408924721,
          40.578477998369124
        ]
      }
    }
  ]
}